[{"OBJECT_NAME":"SUPERVIEW NEO-3 01","OBJECT_ID":"2024-072A","EPOCH":"2026-03-09T22:59:09.446208","MEAN_MOTION":15.23128449,"ECCENTRICITY":0.00029396,"INCLINATION":97.4184,"RA_OF_ASC_NODE":150.1524,"ARG_OF_PERICENTER":104.5976,"MEAN_ANOMALY":255.5587,"EPHEMERIS_TYPE":0,"CLASSIFICATION_TYPE":"U","NORAD_CAT_ID":59510,"ELEMENT_SET_NO":999,"REV_AT_EPOCH":10559,"BSTAR":0.00057697543,"MEAN_MOTION_DOT":0.00013563,"MEAN_MOTION_DDOT":0},{"OBJECT_NAME":"STARCLOUD-1","OBJECT_ID":"2025-248L","EPOCH":"2026-03-08T23:33:20.923488","MEAN_MOTION":15.20134222,"ECCENTRICITY":0.00060214,"INCLINATION":45.402,"RA_OF_ASC_NODE":297.8511,"ARG_OF_PERICENTER":202.4241,"MEAN_ANOMALY":157.6383,"EPHEMERIS_TYPE":0,"CLASSIFICATION_TYPE":"U","NORAD_CAT_ID":66303,"ELEMENT_SET_NO":999,"REV_AT_EPOCH":1928,"BSTAR":0.00040463937,"MEAN_MOTION_DOT":8.636e-5,"MEAN_MOTION_DDOT":0}]
